NORAD_CAT_ID,OBJECT_NAME,OBJECT_TYPE,EPOCH,MEAN_MOTION,ECCENTRICITY,INCLINATION,RA_OF_ASC_NODE,ARG_OF_PERICENTER,MEAN_ANOMALY,BSTAR,MEAN_MOTION_DOT,MEAN_MOTION_DDOT,TLE_LINE0,TLE_LINE1,TLE_LINE2,SEMIMAJOR_AXIS,PERIOD,APOGEE,PERIGEE,DECAYED
49767.0,STARLINK-3192,PAYLOAD,2022-06-27 00:25:50,15.08838956,0.0002318,53.219,87.0231,58.0449,302.0768,0.00022653,3.319e-05,0.0,0 STARLINK-3192,1 49767U 21115AV  22178.01794221  .00003319  00000-0  22653-3 0  9996,2 49767  53.2190  87.0231 0002318  58.0449 302.0768 15.08838956 31621,6917.884,95.438,541.352,538.145,0.0
49767.0,STARLINK-3192,PAYLOAD,2022-06-27 21:05:50,15.08846325,0.0002365,53.2193,83.1567,61.5689,298.5541,0.00015711,2.213e-05,0.0,0 STARLINK-3192,1 49767U 21115AV  22178.87905858  .00002213  00000-0  15711-3 0  9999,2 49767  53.2193  83.1567 0002365  61.5689 298.5541 15.08846325 31751,6917.861,95.437,541.362,538.09,0.0
49767.0,STARLINK-3192,PAYLOAD,2022-06-28 03:27:23,15.08850709,0.0002331,53.2194,81.9677,59.4981,300.6241,0.00010836,1.437e-05,0.0,0 STARLINK-3192,1 49767U 21115AV  22179.14401687  .00001437  00000-0  10836-3 0  9991,2 49767  53.2194  81.9677 0002331  59.4981 300.6241 15.08850709 32905,6917.848000000001,95.437,541.325,538.1,0.0
49767.0,STARLINK-3192,PAYLOAD,2022-06-28 20:56:38,15.0884234,0.0002292,53.2196,78.6969,66.059,294.0642,-5.030100000000001e-05,-1.089e-05,0.0,0 STARLINK-3192,1 49767U 21115AV  22179.87266549 -.00001089  00000-0 -50301-4 0  9994,2 49767  53.2196  78.6969 0002292  66.0590 294.0642 15.08842340 31902,6917.873000000001,95.437,541.3240000000002,538.153,0.0
49767.0,STARLINK-3192,PAYLOAD,2022-06-29 09:39:43,15.0884268,0.0002261,53.219,76.3175,64.149,295.9736,-5.3943e-05,-1.147e-05,0.0,0 STARLINK-3192,1 49767U 21115AV  22180.40258396 -.00001147  00000-0 -53943-4 0  9996,2 49767  53.2190  76.3175 0002261  64.1490 295.9736 15.08842680 31983,6917.871999999999,95.437,541.3009999999998,538.173,0.0
49767.0,STARLINK-3192,PAYLOAD,2022-06-29 20:47:24,15.08843276,0.0002316,53.2185,74.2363,59.7128,300.4093,-5.5792e-06,-3.77e-06,0.0,0 STARLINK-3192,1 49767U 21115AV  22180.86626103 -.00000377  00000-0 -55792-5 0  9990,2 49767  53.2185  74.2363 0002316  59.7128 300.4093 15.08843276 32051,6917.87,95.437,541.3380000000002,538.133,0.0
49767.0,STARLINK-3192,PAYLOAD,2022-06-30 03:08:57,15.08848456,0.0002309,53.2179,73.0473,58.2707,301.851,-9.6015e-06,-4.41e-06,0.0,0 STARLINK-3192,1 49767U 21115AV  22181.13121693 -.00000441  00000-0 -96015-5 0  9990,2 49767  53.2179  73.0473 0002309  58.2707 301.8510 15.08848456 33204,6917.855,95.437,541.317,538.122,0.0
49767.0,STARLINK-3192,PAYLOAD,2022-06-30 09:30:29,15.08844141,0.0002286,53.2179,71.8579,60.5484,299.5736,7.4801e-05,9.02e-06,0.0,0 STARLINK-3192,1 49767U 21115AV  22181.39617629  .00000902  00000-0  74801-4 0  9995,2 49767  53.2179  71.8579 0002286  60.5484 299.5736 15.08844141 32130,6917.868,95.437,541.314,538.151,0.0
49767.0,STARLINK-3192,PAYLOAD,2022-06-30 20:38:12,15.08835559,0.00023,53.2178,69.7764,63.551,296.5718,5.6914e-05,6.17e-06,0.0,0 STARLINK-3192,1 49767U 21115AV  22181.85986236  .00000617  00000-0  56914-4 0  9997,2 49767  53.2178  69.7764 0002300  63.5510 296.5718 15.08835559 33312,6917.894,95.438,541.35,538.168,0.0
49767.0,STARLINK-3192,PAYLOAD,2022-07-01 09:21:17,15.08834156,0.0002298,53.218,67.3975,63.3637,296.7591,2.0629e-05,4e-07,0.0,0 STARLINK-3192,1 49767U 21115AV  22182.38978602  .00000040  00000-0  20629-4 0  9998,2 49767  53.2180  67.3975 0002298  63.3637 296.7591 15.08834156 32285,6917.898,95.438,541.3530000000002,538.174,0.0
49767.0,STARLINK-3192,PAYLOAD,2022-07-01 20:28:59,15.0883952,0.0002293,53.218,65.3158,63.9221,296.2007,3.1844e-05,2.18e-06,0.0,0 STARLINK-3192,1 49767U 21115AV  22182.85346254  .00000218  00000-0  31844-4 0  9990,2 49767  53.2180  65.3158 0002293  63.9221 296.2007 15.08839520 32351,6917.882,95.438,541.3330000000002,538.161,0.0
49767.0,STARLINK-3192,PAYLOAD,2022-07-02 01:15:08,15.08843056,0.0002301,53.218,64.4236,63.5832,296.5396,6.888099999999999e-06,-1.79e-06,0.0,0 STARLINK-3192,1 49767U 21115AV  22183.05218091 -.00000179  00000-0  68881-5 0  9999,2 49767  53.2180  64.4236 0002301  63.5832 296.5396 15.08843056 33491,6917.871,95.437,541.328,538.144,0.0
49767.0,STARLINK-3192,PAYLOAD,2022-07-02 09:12:03,15.08846491,0.0002287,53.2181,62.937,65.1084,295.0145,3.3064e-05,2.38e-06,0.0,0 STARLINK-3192,1 49767U 21115AV  22183.38337697  .00000238  00000-0  33064-4 0  9998,2 49767  53.2181  62.9370 0002287  65.1084 295.0145 15.08846491 32439,6917.861,95.437,541.308,538.143,0.0
49767.0,STARLINK-3192,PAYLOAD,2022-07-02 15:33:35,15.08849392,0.0002255,53.2183,61.7476,64.7844,295.3381,6.1667e-05,6.93e-06,0.0,0 STARLINK-3192,1 49767U 21115AV  22183.64833299  .00000693  00000-0  61667-4 0  9991,2 49767  53.2183  61.7476 0002255  64.7844 295.3381 15.08849392 32471,6917.852,95.437,541.2769999999998,538.1569999999998,0.0
49767.0,STARLINK-3192,PAYLOAD,2022-07-02 21:55:08,15.08850773,0.0002193,53.2177,60.5577,65.2443,294.8777,0.00011515,1.545e-05,0.0,0 STARLINK-3192,1 49767U 21115AV  22183.91328881  .00001545  00000-0  11515-3 0  9990,2 49767  53.2177  60.5577 0002193  65.2443 294.8777 15.08850773 33621,6917.847,95.437,541.23,538.195,0.0
49767.0,STARLINK-3192,PAYLOAD,2022-07-03 09:02:50,15.08841998,0.0002371,53.218,58.4765,65.2492,294.8747,8.7431e-05,1.103e-05,0.0,0 STARLINK-3192,1 49767U 21115AV  22184.37697497  .00001103  00000-0  87431-4 0  9994,2 49767  53.2180  58.4765 0002371  65.2492 294.8747 15.08841998 32582,6917.874,95.437,541.38,538.099,0.0
49767.0,STARLINK-3192,PAYLOAD,2022-07-03 21:45:55,15.08849197,0.0002325,53.2172,56.0969,68.1448,291.9791,0.00011552,1.551e-05,0.0,0 STARLINK-3192,1 49767U 21115AV  22184.90688840  .00001551  00000-0  11552-3 0  9992,2 49767  53.2172  56.0969 0002325  68.1448 291.9791 15.08849197 32660,6917.852,95.437,541.326,538.109,0.0
49767.0,STARLINK-3192,PAYLOAD,2022-07-04 08:53:38,15.08831274,0.0002246,53.2177,54.0162,65.8155,294.3072,-6.125899999999999e-05,-1.263e-05,0.0,0 STARLINK-3192,1 49767U 21115AV  22185.37058679 -.00001263  00000-0 -61259-4 0  9997,2 49767  53.2177  54.0162 0002246  65.8155 294.3072 15.08831274 33846,6917.906999999997,95.438,541.326,538.2180000000002,0.0
49767.0,STARLINK-3192,PAYLOAD,2022-07-04 21:36:44,15.08830949,0.0002205,53.218,51.6373,70.5888,289.5342,-0.00012563,-2.287e-05,0.0,0 STARLINK-3192,1 49767U 21115AV  22185.90051061 -.00002287  00000-0 -12563-3 0  9994,2 49767  53.2180  51.6373 0002205  70.5888 289.5342 15.08830949 32818,6917.908,95.438,541.298,538.248,0.0
49767.0,STARLINK-3192,PAYLOAD,2022-07-05 00:47:30,15.08831472,0.0002305,53.2174,51.0429,65.6648,294.4585,-0.00010908,-2.024e-05,0.0,0 STARLINK-3192,1 49767U 21115AV  22186.03299074 -.00002024  00000-0 -10908-3 0  9997,2 49767  53.2174  51.0429 0002305  65.6648 294.4585 15.08831472 32835,6917.906,95.438,541.366,538.177,0.0
49767.0,STARLINK-3192,PAYLOAD,2022-07-05 21:27:31,15.08834468,0.0002078,53.2178,47.177,65.867,294.254,1.3393e-05,-7.5e-07,0.0,0 STARLINK-3192,1 49767U 21115AV  22186.89411072 -.00000075  00000-0  13393-4 0  9990,2 49767  53.2178  47.1770 0002078  65.8670 294.2540 15.08834468 34073,6917.897,95.438,541.2,538.325,0.0
49767.0,STARLINK-3192,PAYLOAD,2022-07-06 00:38:17,15.08836073,0.000216,53.2178,46.5821,68.4078,291.7144,2.2163e-05,6.4e-07,0.0,0 STARLINK-3192,1 49767U 21115AV  22187.02659048  .00000064  00000-0  22163-4 0  9995,2 49767  53.2178  46.5821 0002160  68.4078 291.7144 15.08836073 32980,6917.892,95.438,541.252,538.263,0.0
49767.0,STARLINK-3192,PAYLOAD,2022-07-06 21:18:18,15.0883679,0.0002084,53.2178,42.7164,68.3025,291.8189,0.00024813,3.663e-05,0.0,0 STARLINK-3192,1 49767U 21115AV  22187.88771252  .00003663  00000-0  24813-3 0  9992,2 49767  53.2178  42.7164 0002084  68.3025 291.8189 15.08836790 33116,6917.89,95.438,541.197,538.314,0.0
49767.0,STARLINK-3192,PAYLOAD,2022-07-07 00:29:04,15.08839424,0.0002088,53.2177,42.1216,68.1457,291.9757,0.00024928,3.681e-05,0.0,0 STARLINK-3192,1 49767U 21115AV  22188.02019218  .00003681  00000-0  24928-3 0  9993,2 49767  53.2177  42.1216 0002088  68.1457 291.9757 15.08839424 34242,6917.882,95.438,541.192,538.303,0.0
49767.0,STARLINK-3192,PAYLOAD,2022-07-07 06:50:37,15.08846082,0.0002128,53.2173,40.9322,68.0806,292.0412,0.00029498,4.41e-05,0.0,0 STARLINK-3192,1 49767U 21115AV  22188.28515178  .00004410  00000-0  29498-3 0  9995,2 49767  53.2173  40.9322 0002128  68.0806 292.0412 15.08846082 33173,6917.861999999999,95.437,541.1990000000002,538.255,0.0
49767.0,STARLINK-3192,PAYLOAD,2022-07-07 21:09:05,15.08845389,0.0002072,53.2173,38.2562,70.0641,290.0574,0.00013544,1.868e-05,0.0,0 STARLINK-3192,1 49767U 21115AV  22188.88131104  .00001868  00000-0  13544-3 0  9993,2 49767  53.2173  38.2562 0002072  70.0641 290.0574 15.08845389 33263,6917.864000000001,95.437,541.1619999999998,538.2959999999998,0.0
49767.0,STARLINK-3192,PAYLOAD,2022-07-08 06:41:23,15.08849861,0.0002086,53.2175,36.4722,70.6546,289.4672,0.00014842,2.075e-05,0.0,0 STARLINK-3192,1 49767U 21115AV  22189.27874654  .00002075  00000-0  14842-3 0  9994,2 49767  53.2175  36.4722 0002086  70.6546 289.4672 15.08849861 34438,6917.85,95.437,541.158,538.2719999999998,0.0
49767.0,STARLINK-3192,PAYLOAD,2022-07-08 19:24:27,15.08865086,0.0002053,53.2173,34.093,70.4296,289.6917,0.00036049,5.458e-05,0.0,0 STARLINK-3192,1 49767U 21115AV  22189.80865565  .00005458  00000-0  36049-3 0  9995,2 49767  53.2173  34.0930 0002053  70.4296 289.6917 15.08865086 34515,6917.804,95.436,541.089,538.248,0.0
49767.0,STARLINK-3192,PAYLOAD,2022-07-09 12:53:42,15.08840486,0.0002161,53.2159,30.8211,73.892,286.231,-0.00015517,-2.757e-05,0.0,0 STARLINK-3192,1 49767U 21115AV  22190.53729921 -.00002757  00000-0 -15517-3 0  9990,2 49767  53.2159  30.8211 0002161  73.8920 286.2310 15.08840486 33512,6917.879,95.438,541.239,538.249,0.0
